{
  "type": "FeatureCollection",
  "features": [
    {
      "type": "Feature",
      "properties": {},
      "geometry": {
        "coordinates": [
          [
            -77.00841456017706,
            -12.025915183298622
          ],
          [
            -77.00819941582985,
            -12.02572193791687
          ],
          [
            -77.0080018342865,
            -12.025902300277465
          ],
          [
            -77.00761106190009,
            -12.026250141631337
          ],
          [
            -77.00729932213169,
            -12.026572216557938
          ],
          [
            -77.007145647598,
            -12.02677834430861
          ],
          [
            -77.0071061312893,
            -12.027057475387025
          ],
          [
            -77.00699636376456,
            -12.027585676478495
          ],
          [
            -77.00695245675493,
            -12.028083816394727
          ],
          [
            -77.00685032377926,
            -12.028924017438655
          ],
          [
            -77.00676332176936,
            -12.029401202154503
          ],
          [
            -77.0073242000682,
            -12.029493530573717
          ],
          [
            -77.00735960439931,
            -12.029004542741234
          ],
          [
            -77.0074114729048,
            -12.028657633525938
          ],
          [
            -77.00749541451806,
            -12.02800307020064
          ],
          [
            -77.00753522635283,
            -12.02749055676206
          ],
          [
            -77.007552114463,
            -12.027077188816989
          ],
          [
            -77.00760890831333,
            -12.026779228088927
          ],
          [
            -77.00798812217681,
            -12.026526914110832
          ],
          [
            -77.00842760086236,
            -12.026054577830266
          ],
          [
            -77.00847933298623,
            -12.025958558580925
          ],
          [
            -77.00822413457466,
            -12.025750677944274
          ]
        ],
        "type": "LineString"
      }
    }
  ]
}